
 PEER Ground Motion Database, Time Series Search Report -- NGA-West2 -- 2023-11-25


 -- Summary of PEER Ground Motion Database Search Criteria --
Magnitude Min:, 6.0
Magnitude Max:, 7.0
Rrup Min (km):, 5.0
Rrup Max (km):, 30.0
Rjb Min (km):, 0.0
Rjb Max (km):, 15.0
Vs30 Min (m/sec):, 360.0
Vs30 Max (m/sec):, 760.0
D9-95 Min (sec):, 5.0
D9-95 Max (sec):, 40.0
Scale Factor Min:, 0.2
Scale Factor Max:, 7.0
Period Array:, 0.52,0.65,0.78
Weight Array:, 1,1,1
Record Sequence Number:, 
Earthquake Name:, 
Station Name:, 
User-Defined Maximum Number of Records:, 11
Pulse:, 1
Damping Ratio:, 0.05
Scaling Method:, Minimize MSE
Suite Average:, Arithmetic
Single-Period-Scaling Period (sec):, 
Component:, SRSS
Fault Type:, All Types


 -- Summary of Metadata of Selected Records --
Result ID, Spectral Ordinate, Record Sequence Number, Mean Squared Error, Scale Factor, Tp-Pulse Period (sec), 5-75% Duration (sec), 5-95% Duration (sec), Arias Intensity (m/sec), Earthquake Name, Year, Station Name, Magnitude, Mechanism, Rjb (km), Rrup (km), Vs30 (m/sec), Lowest Useable Frequency (Hz), Initial-search Scale Factor, Horizontal-1 Acc. Filename, Horizontal-2 Acc. Filename, Vertical Acc. Filename
1, SRSS, 313, 0.0007, 1.5555, -, 5.4, 15.4, 0.9, "Corinth_ Greece", 1981, "Corinth", 6.6, Normal Oblique, 10.27, 10.27, 361.4, 0.25, 1.5562, RSN313_CORINTH_COR--L.AT2, RSN313_CORINTH_COR--T.AT2 , RSN313_CORINTH_COR-UP.AT2  
2, SRSS, 1086, 0.0004, 0.6131, 2.436, 3.3, 6.8, 5.0, "Northridge-01", 1994, "Sylmar - Olive View Med FF", 6.69, Reverse, 1.74, 5.3, 440.54, 0.12, 0.6133, RSN1086_NORTHR_SYL090.AT2, RSN1086_NORTHR_SYL360.AT2 , RSN1086_NORTHR_SYL-UP.AT2  
3, SRSS, 2628, 0.0006, 1.0218, -, 2.3, 5.4, 2.1, "Chi-Chi_ Taiwan-03", 1999, "TCU078", 6.2, Reverse, 0.0, 7.62, 443.04, 0.05, 1.0223, RSN2628_CHICHI.03_TCU078N.AT2, RSN2628_CHICHI.03_TCU078E.AT2 , RSN2628_CHICHI.03_TCU078V.AT2  
4, SRSS, 2635, 0.0018, 5.6188, -, 3.0, 7.3, 0.1, "Chi-Chi_ Taiwan-03", 1999, "TCU089", 6.2, Reverse, 5.93, 9.81, 671.52, 0.125, 5.6215, RSN2635_CHICHI.03_TCU089N.AT2, RSN2635_CHICHI.03_TCU089E.AT2 , RSN2635_CHICHI.03_TCU089V.AT2  
5, SRSS, 2734, 0.0017, 0.9006, 2.436, 4.4, 7.4, 1.6, "Chi-Chi_ Taiwan-04", 1999, "CHY074", 6.2, strike slip, 6.02, 6.2, 553.43, 0.08, 0.9011, RSN2734_CHICHI.04_CHY074N.AT2, RSN2734_CHICHI.04_CHY074E.AT2 , RSN2734_CHICHI.04_CHY074V.AT2  
6, SRSS, 3473, 0.001, 1.4828, 4.151, 3.6, 7.4, 1.0, "Chi-Chi_ Taiwan-06", 1999, "TCU078", 6.3, Reverse, 5.72, 11.52, 443.04, 0.04, 1.4835, RSN3473_CHICHI.06_TCU078N.AT2, RSN3473_CHICHI.06_TCU078E.AT2 , RSN3473_CHICHI.06_TCU078V.AT2  
7, SRSS, 4069, 0.0009, 4.9864, -, 4.9, 11.1, 0.2, "Parkfield-02_ CA", 2004, "PARKFIELD - JACK CANYON", 6.0, strike slip, 9.12, 9.46, 576.21, 0.125, 4.9887, RSN4069_PARK2004_JACK-90.AT2, RSN4069_PARK2004_JACK360.AT2 , RSN4069_PARK2004_JACK-UP.AT2  
8, SRSS, 4127, 0.0005, 5.9081, -, 2.3, 9.1, 0.2, "Parkfield-02_ CA", 2004, "Parkfield - Stone Corral 2E", 6.0, strike slip, 5.23, 5.8, 566.33, 0.5, 5.9108, RSN4127_PARK2004_SC2090.AT2, RSN4127_PARK2004_SC2360.AT2 , RSN4127_PARK2004_SC2-UP.AT2  
9, SRSS, 4228, 0.0009, 1.1307, 1.799, 3.9, 12.2, 2.2, "Niigata_ Japan", 2004, "NIGH11", 6.63, Reverse, 6.27, 8.93, 375.0, 0.05, 1.1312, RSN4228_NIIGATA_NIGH11NS.AT2, RSN4228_NIIGATA_NIGH11EW.AT2 , RSN4228_NIIGATA_NIGH11UD.AT2  
10, SRSS, 4847, 0.0008, 0.8014, 1.4, 7.3, 20.3, 2.3, "Chuetsu-oki_ Japan", 2007, "Joetsu Kakizakiku Kakizaki", 6.8, Reverse, 9.43, 11.94, 383.43, 0.0875, 0.8018, RSN4847_CHUETSU_65010NS.AT2, RSN4847_CHUETSU_65010EW.AT2 , RSN4847_CHUETSU_65010UD.AT2  
11, SRSS, 5818, 0.0017, 0.9252, -, 6.5, 15.1, 7.3, "Iwate_ Japan", 2008, "Kurihara City", 6.9, Reverse, 12.83, 12.85, 512.26, 0.1, 0.9256, RSN5818_IWATE_48A61NS.AT2, RSN5818_IWATE_48A61EW.AT2 , RSN5818_IWATE_48A61UD.AT2  

 These records were obtained from the NGA-West2 On-Line Ground-Motion Database Tool
 These records are UNSCALED, AS RECORDED
 Filename Extension: 
   ,AT2 = Acceleration
   ,VT2 = Velocity
   ,DT2 = Displacement
 The users of the NGA-West2 databases, flatfiles, models and reports are requested to acknowledge the Pacific Earthquake Engineering Research Center (PEER) in their work and publications.

 -- Scaled Spectra used in Search & Scaling --
Period (sec),Target pSa (g),Arithmetic Mean pSa (g),Arithmetic Mean + Sigma pSa (g),Arithmetic Mean - Sigma pSa (g),RSN-313 SRSS pSa (g),RSN-1086 SRSS pSa (g),RSN-2628 SRSS pSa (g),RSN-2635 SRSS pSa (g),RSN-2734 SRSS pSa (g),RSN-3473 SRSS pSa (g),RSN-4069 SRSS pSa (g),RSN-4127 SRSS pSa (g),RSN-4228 SRSS pSa (g),RSN-4847 SRSS pSa (g),RSN-5818 SRSS pSa (g)
0.01,0.54918919,0.7573411,1.14283435,0.50187985,0.59243688,0.64282909,0.53801414,0.70678851,0.4232844,0.69744567,1.11970507,1.54469585,0.85792985,0.44030777,0.76731485
0.02,0.61837838,0.76411669,1.15689881,0.50468919,0.59211351,0.64871741,0.55792391,0.71308395,0.42603977,0.69807986,1.1294708,1.57058723,0.86409978,0.44101127,0.76415612
0.022,0.63398881,0.7693195,1.16657157,0.5073435,0.59254067,0.651498,0.57521735,0.71451127,0.42726701,0.70333613,1.13431758,1.58886441,0.86621618,0.44229834,0.7664476
0.025,0.65554656,0.78164067,1.18936783,0.51368645,0.59333762,0.66473739,0.6191329,0.7234318,0.42603714,0.7139062,1.13619393,1.6353156,0.87007086,0.44718371,0.76870026
0.029,0.68149731,0.79639965,1.23070126,0.51535854,0.59459415,0.66912988,0.65360644,0.72110154,0.42915156,0.72046827,1.14895944,1.71816223,0.86323679,0.45060975,0.79137609
0.03,0.68756757,0.79615934,1.21800666,0.52041562,0.59491837,0.66864775,0.6602874,0.72545671,0.42973736,0.72958469,1.15653795,1.68422461,0.8768325,0.4554571,0.77606828
0.032,0.70251742,0.80179206,1.22478057,0.52488627,0.59558519,0.6559112,0.66640671,0.73301326,0.43517187,0.72735228,1.15041525,1.69817515,0.89579667,0.47245447,0.78943058
0.035,0.72381592,0.85609168,1.46075733,0.50172122,0.59662812,0.65964716,0.66084951,0.74284605,0.43231851,0.73871531,1.28914334,2.12210339,0.92681521,0.46833418,0.77960765
0.036,0.73064389,0.86655317,1.52820792,0.49136926,0.59688647,0.65169564,0.65742572,0.73857009,0.43453943,0.73364118,1.31762362,2.24633569,0.91467768,0.47123037,0.76945899
0.04,0.75675676,0.86706673,1.50269231,0.50030516,0.60714388,0.66091143,0.63673396,0.72662296,0.43388778,0.72974821,1.26503411,2.19921849,0.98841314,0.46471554,0.82530453
0.042,0.77137215,0.89512473,1.58894776,0.50426345,0.61227267,0.66270571,0.60982292,0.72001088,0.42303012,0.72973904,1.36639798,2.31145472,1.05134173,0.50515046,0.8544458
0.044,0.7855703,0.93835282,1.76588244,0.49862097,0.61286713,0.65525337,0.61498678,0.73866415,0.42651549,0.72973559,1.50886076,2.58027106,1.08898965,0.50760163,0.85813543
0.045,0.79252246,0.95606541,1.83275221,0.49873685,0.61401245,0.65608577,0.62560066,0.7464808,0.4295959,0.72863064,1.59140157,2.66779822,1.09980098,0.50457611,0.85273639
0.046,0.79938131,0.97672119,1.90367499,0.50112771,0.61406241,0.66407019,0.62960569,0.74457291,0.42985235,0.74374423,1.6878866,2.74800492,1.13769674,0.49644056,0.84799651
0.048,0.81283191,1.01594961,2.04138705,0.50561388,0.60420595,0.68713659,0.62843158,0.71624336,0.42370353,0.75644447,1.95543382,2.85962282,1.18935888,0.51661989,0.83824487
0.05,0.82594595,1.04056538,2.08754993,0.51868284,0.59889611,0.69362758,0.6488037,0.73222496,0.43517437,0.76619543,2.10852719,2.85677251,1.23101224,0.54101575,0.83396937
0.055,0.86142056,1.0949983,2.18362746,0.54909608,0.6185534,0.67772507,0.69897185,0.75413832,0.48477181,0.77865056,2.07170132,3.03781807,1.45515014,0.63923134,0.82826946
0.06,0.89513514,1.08846597,1.98751503,0.59610023,0.62770524,0.76625364,0.75387776,0.75631384,0.54054241,0.8074416,2.0963758,2.60789163,1.53976279,0.60807031,0.86889068
0.065,0.93041841,1.14286219,2.08541025,0.62631993,0.62431276,0.76254071,0.76045343,0.83097328,0.53021269,0.81900818,2.00943632,2.71791388,1.90491118,0.70560139,0.9061203
0.067,0.94413722,1.159481,2.11848811,0.63460172,0.63704852,0.74147634,0.79555787,0.83630452,0.55155883,0.80486646,2.1065734,2.70514713,1.9602784,0.7136294,0.90185016
0.07,0.96432432,1.21736519,2.31861954,0.63916395,0.64459574,0.74381197,0.86377887,0.8406185,0.558422,0.78066437,2.24385548,3.01478304,2.06119715,0.74939086,0.88989916
0.075,0.99947414,1.31316805,2.77466851,0.62148337,0.63674189,0.77982896,0.88948435,0.85991107,0.59934249,0.87054017,2.24931936,3.99705759,1.83638219,0.75226881,0.97397164
0.08,1.03351351,1.41445435,3.20720826,0.62380767,0.63509227,0.89180932,0.92732426,0.94603448,0.65321745,0.93992957,2.52566466,4.65966502,1.72219192,0.65416468,1.00390421
0.085,1.06856611,1.41370657,3.09970827,0.64475947,0.64843726,0.97310437,0.9176514,0.91367024,0.65307757,1.0467974,2.71026101,4.43522323,1.59032871,0.68838811,0.97383297
0.09,1.1027027,1.44788289,2.92562693,0.71655236,0.68496594,0.99847604,1.00458208,1.06587368,0.69025293,1.15324292,2.70839378,4.115362,1.82474171,0.7026176,0.97820314
0.095,1.13768205,1.5294112,3.13231819,0.74676277,0.70807693,0.97370252,1.12617922,1.1636124,0.74493304,1.35635613,2.63939255,4.51937439,1.89755605,0.67399524,1.02034472
0.1,1.17189189,1.61789834,3.46568767,0.75528879,0.70599433,0.98926826,1.34123573,1.22721869,0.84277382,1.47515508,2.57180748,5.12866711,1.86892904,0.63620596,1.00962627
0.11,1.1904,1.73447784,3.75381498,0.80142825,0.74594056,0.98750622,1.50076225,1.31301834,0.94833543,1.59222554,2.39433882,5.67804954,1.97491828,0.73454205,1.2096192
0.12,1.1904,1.74754763,3.43790728,0.88830864,0.83368856,0.96180051,1.30977927,1.57732354,0.9912834,1.54972662,2.9165402,4.99874575,1.81558105,0.68545079,1.58310425
0.13,1.1904,1.79323185,3.42444431,0.93903716,0.88523335,0.98753522,1.48109356,1.82177165,1.01549189,1.41700245,3.27840051,4.78575405,1.89502621,0.69565067,1.46259079
0.133,1.1904,1.8239252,3.56319064,0.9336304,0.9501376,0.99571916,1.48181411,1.87700386,0.98381882,1.45215213,3.17705863,5.10176771,1.92429283,0.71049882,1.40891349
0.14,1.1904,1.80238367,3.63568325,0.89352858,0.98345299,1.00495853,1.22434714,1.88305557,0.95705571,1.50130851,2.80848703,5.3766918,1.9726333,0.72983031,1.38439945
0.15,1.1904,1.88489895,3.98446927,0.8916731,0.97171809,0.94470777,1.30774891,1.68274281,1.07777482,1.67264619,2.64323843,6.04156847,1.9032407,0.77808434,1.71041797
0.16,1.1904,1.92493969,3.81841261,0.97040137,0.99947072,0.91772451,1.41082403,1.72502845,1.0873189,2.05041839,2.83371059,5.67647543,1.71823927,0.79126533,1.96386102
0.17,1.1904,1.85114174,3.25735455,1.05199655,1.13416396,0.86757697,1.65298783,1.79515968,1.01263597,2.26947681,2.75508638,4.58520969,1.70969928,0.70107191,1.87949069
0.18,1.1904,1.73492766,2.77747581,1.08370844,1.34273364,0.87363259,1.63632481,1.72668396,0.9167473,2.22322855,2.68235105,3.59623831,1.63706467,0.6651037,1.78409568
0.19,1.1904,1.74170543,2.58061904,1.1755078,1.34170748,0.92748603,1.69705773,1.8308133,1.05664846,2.07113175,3.02405252,2.70949282,1.71515074,0.71366372,2.07155519
0.2,1.1904,1.79123768,2.63491666,1.21769787,1.29077751,0.93948678,1.67421334,1.84822946,1.09603735,2.17303286,2.99942998,2.62815562,1.90037318,0.74890976,2.40496859
0.22,1.1904,1.73711852,2.43437802,1.2395695,1.32164917,0.9807629,1.65503921,1.9804947,1.14876227,2.27458276,2.7108468,2.31644942,1.87597435,0.77665175,2.06709036
0.24,1.1904,1.71123992,2.31529907,1.26477918,1.557063,1.08279197,1.68296153,1.69752929,1.27595656,1.84777297,2.35043463,2.60558381,1.87001287,0.74824377,2.10528873
0.25,1.1904,1.7167743,2.33024233,1.26481008,1.59204209,1.14955544,1.73243534,1.60464998,1.18415811,1.96939637,2.14014499,2.70035411,1.76475348,0.78020237,2.26682502
0.26,1.1904,1.74287123,2.40466916,1.26320916,1.69421336,1.25812505,1.82414195,1.50498079,1.12122447,2.15968587,1.93754721,2.43853406,1.66946713,0.76427373,2.79938986
0.28,1.1904,1.63571312,2.22236747,1.20392215,1.57740119,1.50153708,2.07516573,1.4202623,0.9650415,2.16655816,1.59222559,2.00045729,1.50292051,0.69663574,2.49463927
0.29,1.1904,1.61805034,2.1601125,1.21201413,1.41087771,1.6346051,2.11761158,1.56108882,1.00261853,2.06917665,1.53628939,1.97116643,1.53013685,0.66085789,2.30412474
0.3,1.1904,1.61093131,2.10385926,1.23349491,1.28270776,1.73064568,2.1141418,1.67611754,1.04812073,1.90965991,1.49468095,2.03026699,1.58470486,0.72124403,2.12795416
0.32,1.1904,1.61936238,2.08673754,1.25666715,1.09683732,1.83619771,1.91301469,1.89286605,1.1043274,1.84018362,1.5304829,1.95904547,1.64808685,0.82327805,2.16866611
0.34,1.1904,1.58253317,2.07711055,1.20571879,1.02859127,1.84998269,1.59156796,1.78583155,1.10109917,1.69223376,1.65830693,2.03263793,1.62442922,0.76123363,2.28195074
0.35,1.1904,1.58793764,2.12170034,1.18845527,1.04560312,1.84735682,1.47474744,1.72765558,1.10071358,1.60167593,1.65536928,2.11994218,1.67676317,0.77163354,2.44585344
0.36,1.1904,1.59644728,2.17388299,1.17239241,1.06680992,1.84584394,1.34475901,1.68570412,1.1500344,1.52400822,1.62816073,2.22501472,1.74095154,0.77359876,2.57603472
0.38,1.1904,1.5755414,2.12939366,1.16574532,1.1738785,1.81510596,1.11758729,1.65448915,1.27073519,1.33746105,1.63830421,2.32229724,1.99136392,0.74687987,2.26285299
0.4,1.1904,1.6055452,2.15130476,1.19823812,1.37747435,1.78501605,1.13652361,1.7941838,1.38013209,1.12705205,1.6658162,2.25145203,2.16887647,0.76539276,2.20907774
0.42,1.1904,1.54920748,2.00548144,1.19674197,1.43789378,1.73475159,1.08144867,1.84574792,1.43808095,1.17461299,1.61599589,2.07572931,1.89498386,0.74321831,1.99881898
0.44,1.1904,1.50815413,1.87427722,1.21354988,1.57533137,1.65936734,1.04600949,1.69918342,1.39533823,1.37295245,1.53555668,1.93993124,1.73653271,0.78596985,1.84352267
0.45,1.1904,1.47817817,1.80661453,1.20945042,1.55032702,1.63370028,1.031023,1.60030604,1.34999535,1.44894222,1.5047704,1.88326422,1.6748282,0.82620061,1.75660251
0.46,1.1904,1.44092025,1.73063774,1.19970293,1.48545623,1.59076965,1.01369511,1.50880142,1.29650859,1.48376751,1.47788685,1.82324342,1.60635627,0.89015841,1.6734793
0.48,1.1904,1.35544495,1.57475982,1.1666738,1.3268219,1.54298176,0.97928269,1.3348473,1.22431986,1.43233275,1.41326533,1.67189673,1.46728241,1.01479474,1.50206903
0.5,1.1904,1.30396369,1.43460025,1.18522306,1.2915603,1.47197855,1.09102494,1.20742585,1.29360646,1.33984966,1.32944758,1.50358665,1.36507526,1.10385367,1.34619162
0.55,1.1904,1.18046273,1.21816656,1.14392587,1.1712121,1.23122104,1.17372438,1.13374736,1.20571456,1.23596122,1.17491574,1.21743325,1.1678458,1.1606371,1.11267744
0.6,1.1203896,1.10943541,1.1523868,1.0680849,1.07826253,1.12457935,1.08026256,1.20705655,1.17339493,1.08553674,1.07800574,1.08489584,1.07698636,1.12528088,1.08952808
0.65,1.03420578,1.04212895,1.06481366,1.01992751,1.01621479,1.02749435,1.03245673,1.05825374,1.06915875,1.06595596,1.01954248,1.01615495,1.0739374,1.06219408,1.02205523
0.667,1.00784672,1.01496592,1.03060172,0.99956735,1.0123429,0.99456452,1.01010657,1.00831772,1.02146211,1.02790085,0.99541449,0.99567448,1.04219698,1.03522344,1.02142111
0.7,0.96033394,0.96208191,0.98632941,0.9384305,0.99092104,0.93136512,0.96145668,0.9544571,0.92957042,0.92184057,0.98202754,0.97269097,0.9708802,0.97238231,0.99530906
0.75,0.89631168,0.89785352,0.93766757,0.85973001,0.9268607,0.9054578,0.93856101,0.85612899,0.83079002,0.88050342,0.94529201,0.91799716,0.87304493,0.85446508,0.94728763
0.8,0.8402922,0.86169062,0.95123598,0.78057468,0.99464095,0.97260124,0.83161604,0.74476863,0.78480113,0.9282371,0.85674229,0.94317163,0.80461723,0.74012736,0.87727319
0.85,0.79086325,0.82014233,0.94347391,0.71293275,0.93774508,0.94468855,0.67061298,0.66176364,0.89348069,0.89872194,0.76371933,1.01014437,0.76287551,0.71537558,0.76243798
0.9,0.7469264,0.74395015,0.88611137,0.62459623,0.80563618,0.83226412,0.51908066,0.54426355,0.79324755,0.83459389,0.6734735,1.00291925,0.73187907,0.70848701,0.73760684
0.95,0.70761448,0.67663471,0.83193432,0.55032533,0.66581201,0.71538157,0.44091176,0.47417844,0.69697076,0.78858627,0.57564243,0.97783542,0.70309506,0.72409583,0.68047226
1.0,0.67223376,0.62868003,0.78442024,0.50386077,0.60897004,0.65220945,0.39890836,0.46531993,0.61987378,0.72521261,0.51213361,0.92811904,0.66808625,0.75550107,0.58114623
1.1,0.6111216,0.55513123,0.74522208,0.41352865,0.52157943,0.62271757,0.31486473,0.41500413,0.4202169,0.62596403,0.42344541,0.88822004,0.60570156,0.7831625,0.48556722
1.2,0.5601948,0.51803215,0.72732334,0.36896562,0.43329015,0.6453259,0.2932765,0.4197549,0.36532062,0.55680294,0.35677067,0.89169404,0.55345996,0.75548804,0.42716992
1.3,0.51710289,0.49448694,0.69464804,0.35200176,0.4125949,0.64603759,0.30972424,0.46892764,0.36022009,0.47163809,0.30198543,0.8507489,0.49918622,0.72548933,0.39280386
1.4,0.48016697,0.45488224,0.62275008,0.33226467,0.37836646,0.61419217,0.30667423,0.43931195,0.4025576,0.38159297,0.26687179,0.75099495,0.4387224,0.64095447,0.38346567
1.5,0.44815584,0.4220284,0.56847813,0.31330663,0.36839437,0.58737787,0.28521493,0.38488537,0.40905972,0.32853522,0.23620189,0.65955377,0.38928275,0.57239249,0.42141401
1.6,0.4201461,0.39298592,0.51793585,0.29817965,0.34085738,0.55271019,0.29550661,0.36068979,0.40711821,0.28459733,0.22143304,0.57335909,0.34976822,0.51054297,0.42626225
1.7,0.39543162,0.37666664,0.49101862,0.28894578,0.35326841,0.52344857,0.29885539,0.34598348,0.3898426,0.2499518,0.21936815,0.48388871,0.31616067,0.51726486,0.44530043
1.8,0.3734632,0.35909934,0.47239341,0.27297657,0.33885769,0.50262085,0.29575834,0.4190359,0.3514735,0.22063579,0.20611418,0.40890019,0.29749731,0.52841107,0.38078791
1.9,0.35380724,0.33686402,0.46185981,0.24569656,0.30886992,0.48563482,0.28528449,0.47266398,0.31517634,0.19498922,0.17333415,0.34002694,0.27177348,0.50561377,0.35213712
2.0,0.33611688,0.31846926,0.44451129,0.22816668,0.32150231,0.46757234,0.26926871,0.47147498,0.289013,0.17839111,0.14204433,0.29551542,0.24944204,0.4448687,0.37406887
2.2,0.3055608,0.25705083,0.36147734,0.1827919,0.27609495,0.42641583,0.22528343,0.31375956,0.2388348,0.15317763,0.10085769,0.22230887,0.21917689,0.36818069,0.28346879
2.4,0.2800974,0.21846012,0.3177084,0.1502158,0.25296158,0.39994275,0.18548464,0.27508644,0.19328107,0.13344633,0.0772525,0.1686701,0.19657555,0.28230886,0.23805148
2.5,0.2688935,0.20295241,0.29657764,0.1388833,0.24056168,0.38432871,0.17009424,0.25116876,0.1815181,0.13805716,0.07046811,0.14746101,0.18427203,0.23971865,0.22482811
2.6,0.25855145,0.18801104,0.27360228,0.12919538,0.23089851,0.35732142,0.1652802,0.22485503,0.16841451,0.14109083,0.06414202,0.12915054,0.1728823,0.20840752,0.20567858
2.8,0.0,0.17283888,0.25443952,0.11740817,0.20706298,0.30120589,0.15654659,0.26216404,0.14850574,0.13533121,0.05316394,0.09984881,0.15163149,0.20599606,0.1797709
3.0,0.0,0.1602376,0.2417516,0.10620856,0.17446499,0.26471053,0.14422346,0.26588695,0.13188252,0.1270474,0.04428222,0.08294793,0.13283745,0.21182886,0.18250133
3.2,0.0,0.14263023,0.21165655,0.09611506,0.14657612,0.21542283,0.1314748,0.22937955,0.11749867,0.12200647,0.03895216,0.07238324,0.11649807,0.1966641,0.18207651
3.4,0.0,0.12562415,0.1842093,0.08567117,0.11647834,0.17424684,0.12030849,0.1950265,0.10827974,0.11487449,0.03517538,0.06359967,0.10232623,0.16787155,0.18367839
3.5,0.0,0.11772642,0.17144264,0.0808405,0.10070213,0.15975203,0.11580999,0.17513178,0.10371767,0.11143168,0.03354643,0.05976311,0.10093921,0.15393783,0.18025872
3.6,0.0,0.10921036,0.15854338,0.075228,0.0867817,0.14556214,0.11088827,0.15682228,0.09895205,0.10730535,0.03205734,0.05624803,0.09392021,0.13931548,0.17346107
3.8,0.0,0.09442886,0.14005669,0.06366572,0.06398066,0.11856734,0.10041304,0.12569237,0.08886392,0.09851645,0.02944959,0.05006679,0.0794236,0.11225749,0.17148625
4.0,0.0,0.0829968,0.12479929,0.05519638,0.05519669,0.09548349,0.08976634,0.10493919,0.07900545,0.09230279,0.02719823,0.04483159,0.07020764,0.09208904,0.16194439
4.2,0.0,0.07506266,0.11321734,0.04976625,0.04799643,0.08443871,0.07951513,0.10091182,0.07157624,0.08808316,0.02519224,0.04037142,0.0624327,0.08008527,0.14508613
4.4,0.0,0.06857292,0.10429789,0.04508476,0.04127077,0.0765159,0.06977398,0.09604635,0.0644615,0.08311054,0.02341358,0.03654205,0.05524468,0.0760731,0.13184971
